[
    {
        "Altitude(m)": 624790.783668294,
        "Argument of Periapsis(deg)": 0.0,
        "Eccentricity": 0.0,
        "Inclination(deg)": 60.0,
        "Latitude(deg)": -59.14708104909229,
        "Longitude(deg)": 151.03447589783704,
        "Mean Anomaly(deg)": -81.81819999999996,
        "RAAN(deg)": 325.0,
        "Satellite Name": "Test1 1447",
        "Satellite Number": 1447,
        "Semi-Major Axis(m)": 6980739.136638005,
        "Time(s)": 0
    },
    {
        "Altitude(m)": 624737.4392112641,
        "Argument of Periapsis(deg)": 0.00010418945913296404,
        "Eccentricity": 0.0,
        "Inclination(deg)": 60.0,
        "Latitude(deg)": -58.994537721591094,
        "Longitude(deg)": 152.15397762170363,
        "Mean Anomaly(deg)": -81.1980938545381,
        "RAAN(deg)": 324.99957995086027,
        "Satellite Name": "Test1 1447",
        "Satellite Number": 1447,
        "Semi-Major Axis(m)": 6980739.136638005,
        "Time(s)": 10
    }
]